{"fetched_at":"2026-03-29T02:12:04Z","count":15717,"tles":[{"name":"STARLINK-30788","line1":"1 58159U 23166K   26087.54612919  .00000451  00000+0  27364-4 0  9991","line2":"2 58159  53.1597 132.2150 0001153  84.7589 275.3543 15.30193383135919","category":"Starlink"}]}